NORAD_CAT_ID,OBJECT_NAME,OBJECT_TYPE,EPOCH,MEAN_MOTION,ECCENTRICITY,INCLINATION,RA_OF_ASC_NODE,ARG_OF_PERICENTER,MEAN_ANOMALY,BSTAR,MEAN_MOTION_DOT,MEAN_MOTION_DDOT,TLE_LINE0,TLE_LINE1,TLE_LINE2,SEMIMAJOR_AXIS,PERIOD,APOGEE,PERIGEE,DECAYED
52987.0,STARLINK-4259,PAYLOAD,2024-07-09 12:49:57,15.0883631,0.0001483,53.2152,314.2394,87.3786,272.7376,-1.4169e-05,-5.13e-06,0.0,0 STARLINK-4259,1 52987U 22076B   24191.53469552 -.00000513  00000-0 -14169-4 0  9990,2 52987  53.2152 314.2394 0001483  87.3786 272.7376 15.08836310111363,6917.892,95.438,540.783,538.731,0.0
52987.0,STARLINK-4259,PAYLOAD,2024-07-09 14:25:20,15.08835162,0.0001184,53.2146,313.9419,94.573,265.5397,-3.2129e-05,-7.99e-06,0.0,0 STARLINK-4259,1 52987U 22076B   24191.60093492 -.00000799  00000-0 -32129-4 0  9996,2 52987  53.2146 313.9419 0001184  94.5730 265.5397 15.08835162110903,6917.895,95.438,540.579,538.941,0.0
52987.0,STARLINK-4259,PAYLOAD,2024-07-09 16:00:43,15.08839739,0.0001301,53.2157,313.6447,90.5973,269.5169,7.3653e-05,8.84e-06,0.0,0 STARLINK-4259,1 52987U 22076B   24191.66717399  .00000884  00000-0  73653-4 0  9991,2 52987  53.2157 313.6447 0001301  90.5973 269.5169 15.08839739110915,6917.881,95.438,540.646,538.846,0.0
52987.0,STARLINK-4259,PAYLOAD,2024-07-10 01:33:02,15.08847217,0.0001326,53.216,311.8606,90.477,269.6374,0.00049531,7.605e-05,0.0,0 STARLINK-4259,1 52987U 22076B   24192.06461281  .00007605  00000-0  49531-3 0  9997,2 52987  53.2160 311.8606 0001326  90.4770 269.6374 15.08847217111445,6917.858,95.437,540.641,538.806,0.0
52987.0,STARLINK-4259,PAYLOAD,2024-07-10 07:54:35,15.08836184,0.0001368,53.2183,310.6669,108.9003,251.2137,4.4105e-05,4.14e-06,0.0,0 STARLINK-4259,1 52987U 22076B   24192.32957615  .00000414  00000-0  44105-4 0  9991,2 52987  53.2183 310.6669 0001368 108.9003 251.2137 15.08836184111485,6917.892,95.438,540.703,538.811,0.0
52987.0,STARLINK-4259,PAYLOAD,2024-07-10 14:16:07,15.08849048,0.0001548,53.2166,309.4776,109.0206,251.0953,0.00081414,0.00012696,0.0,0 STARLINK-4259,1 52987U 22076B   24192.59453511  .00012696  00000-0  81414-3 0  9994,2 52987  53.2166 309.4776 0001548 109.0206 251.0953 15.08849048111058,6917.853,95.437,540.789,538.647,0.0
52987.0,STARLINK-4259,PAYLOAD,2024-07-11 14:06:54,15.08850173,0.0001334,53.217,305.0213,100.5482,259.566,0.00032389,4.872e-05,0.0,0 STARLINK-4259,1 52987U 22076B   24193.58813275  .00004872  00000-0  32389-3 0  9995,2 52987  53.2170 305.0213 0001334 100.5482 259.5660 15.08850173111202,6917.849,95.437,540.637,538.791,0.0
52987.0,STARLINK-4259,PAYLOAD,2024-07-12 13:57:42,15.08834676,0.0001311,53.2164,300.5593,91.7418,268.3724,9.3086e-05,1.194e-05,0.0,0 STARLINK-4259,1 52987U 22076B   24194.58173843  .00001194  00000-0  93086-4 0  9992,2 52987  53.2164 300.5593 0001311  91.7418 268.3724 15.08834676111828,6917.897,95.438,540.669,538.855,0.0
52987.0,STARLINK-4259,PAYLOAD,2024-07-13 13:48:29,15.08835997,0.0001208,53.2174,296.1019,97.6292,262.4837,-5.4506e-05,-1.155e-05,0.0,0 STARLINK-4259,1 52987U 22076B   24195.57534227 -.00001155  00000-0 -54506-4 0  9992,2 52987  53.2174 296.1019 0001208  97.6292 262.4837 15.08835997111504,6917.893,95.438,540.593,538.922,0.0
52987.0,STARLINK-4259,PAYLOAD,2024-07-13 23:20:47,15.08850284,0.0001368,53.2188,294.3176,92.8351,267.2797,6.8245e-05,7.99e-06,0.0,0 STARLINK-4259,1 52987U 22076B   24195.97277120  .00000799  00000-0  68245-4 0  9998,2 52987  53.2188 294.3176 0001368  92.8351 267.2797 15.08850284112036,6917.849,95.437,540.66,538.768,0.0
52987.0,STARLINK-4259,PAYLOAD,2024-07-14 13:39:16,15.08835842,0.0001485,53.2186,291.6443,107.6195,252.496,0.00014447,2.012e-05,0.0,0 STARLINK-4259,1 52987U 22076B   24196.56894077  .00002012  00000-0  14447-3 0  9994,2 52987  53.2186 291.6443 0001485 107.6195 252.4960 15.08835842112123,6917.893,95.438,540.785,538.731,0.0
52987.0,STARLINK-4259,PAYLOAD,2024-07-14 15:14:39,15.08838123,0.0001344,53.2177,291.3451,99.4172,260.6972,0.00015719,2.215e-05,0.0,0 STARLINK-4259,1 52987U 22076B   24196.63517925  .00002215  00000-0  15719-3 0  9994,2 52987  53.2177 291.3451 0001344  99.4172 260.6972 15.08838123111663,6917.886,95.438,540.681,538.821,0.0
52987.0,STARLINK-4259,PAYLOAD,2024-07-15 05:33:07,15.0885014,0.0002973,53.2163,288.6674,84.141,275.9921,0.00036285,5.493e-05,0.0,0 STARLINK-4259,1 52987U 22076B   24197.23133658  .00005493  00000-0  36285-3 0  9990,2 52987  53.2163 288.6674 0002973  84.1410 275.9921 15.08850140112228,6917.849,95.437,541.771,537.658,0.0
52987.0,STARLINK-4259,PAYLOAD,2024-07-15 13:30:03,15.08837949,0.0001505,53.2172,287.1789,85.2013,274.9151,5.9749e-05,6.63e-06,0.0,0 STARLINK-4259,1 52987U 22076B   24197.56254013  .00000663  00000-0  59749-4 0  9990,2 52987  53.2172 287.1789 0001505  85.2013 274.9151 15.08837949112271,6917.887,95.438,540.793,538.711,0.0
52987.0,STARLINK-4259,PAYLOAD,2024-07-16 05:23:52,15.08910153,9.61e-05,53.2158,284.2057,73.4645,286.6452,0.0020488,0.00032532,0.0,0 STARLINK-4259,1 52987U 22076B   24198.22491749  .00032532  00000-0  20488-2 0  9999,2 52987  53.2158 284.2057 0000961  73.4645 286.6452 15.08910153112370,6917.666,95.433,540.196,538.866,0.0
52987.0,STARLINK-4259,PAYLOAD,2024-07-16 13:20:48,15.08865103,0.0001143,53.2149,282.7178,88.368,271.7443,-0.00075827,-0.00012344,0.0,0 STARLINK-4259,1 52987U 22076B   24198.55612040 -.00012344  00000-0 -75827-3 0  9993,2 52987  53.2149 282.7178 0001143  88.3680 271.7443 15.08865103111956,6917.804,95.436,540.459,538.878,0.0
52987.0,STARLINK-4259,PAYLOAD,2024-07-17 05:14:40,15.08836015,0.000132,53.2159,279.7451,108.3332,251.7804,0.0012492,0.00019647,0.0,0 STARLINK-4259,1 52987U 22076B   24199.21852904  .00019647  00000-0  12492-2 0  9991,2 52987  53.2159 279.7451 0001320 108.3332 251.7804 15.08836015112524,6917.893,95.438,540.671,538.844,0.0
52987.0,STARLINK-4259,PAYLOAD,2024-07-17 11:36:14,15.08828012,0.0001567,53.2157,278.5519,76.7104,283.4063,0.00090826,0.00014192,0.0,0 STARLINK-4259,1 52987U 22076B   24199.48349742  .00014192  00000-0  90826-3 0  9999,2 52987  53.2157 278.5519 0001567  76.7104 283.4063 15.08828012112563,6917.917,95.438,540.866,538.698,0.0
52987.0,STARLINK-4259,PAYLOAD,2024-07-17 22:43:56,15.08829855,0.0001266,53.2158,276.4723,79.0442,281.0692,0.0012578,0.00019781,0.0,0 STARLINK-4259,1 52987U 22076B   24199.94718378  .00019781  00000-0  12578-2 0  9991,2 52987  53.2158 276.4723 0001266  79.0442 281.0692 15.08829855112169,6917.911,95.438,540.652,538.901,0.0
52987.0,STARLINK-4259,PAYLOAD,2024-07-18 11:27:02,15.08835462,0.0001366,53.2173,274.0909,86.3467,273.7681,0.00068758,0.0001067,0.0,0 STARLINK-4259,1 52987U 22076B   24200.47710707  .00010670  00000-0  68758-3 0  9990,2 52987  53.2173 274.0909 0001366  86.3467 273.7681 15.08835462112713,6917.894,95.438,540.704,538.814,0.0
52987.0,STARLINK-4259,PAYLOAD,2024-07-19 11:17:49,15.08846454,0.000145,53.2167,269.6318,82.7411,277.3746,0.00042656,6.508e-05,0.0,0 STARLINK-4259,1 52987U 22076B   24201.47070628  .00006508  00000-0  42656-3 0  9996,2 52987  53.2167 269.6318 0001450  82.7411 277.3746 15.08846454112864,6917.861,95.437,540.729,538.723,0.0
52987.0,STARLINK-4259,PAYLOAD,2024-07-20 04:47:03,15.08844975,0.0001463,53.2162,266.3605,84.6448,275.4711,0.00018699,2.69e-05,0.0,0 STARLINK-4259,1 52987U 22076B   24202.19934495  .00002690  00000-0  18699-3 0  9995,2 52987  53.2162 266.3605 0001463  84.6448 275.4711 15.08844975112976,6917.865,95.437,540.742,538.718,0.0
52987.0,STARLINK-4259,PAYLOAD,2024-07-20 11:08:36,15.08841033,0.0001285,53.2146,265.17,79.7796,280.3341,6.6613e-05,7.72e-06,0.0,0 STARLINK-4259,1 52987U 22076B   24202.46430566  .00000772  00000-0  66613-4 0  9994,2 52987  53.2146 265.1700 0001285  79.7796 280.3341 15.08841033112543,6917.877,95.437,540.631,538.853,0.0
52987.0,STARLINK-4259,PAYLOAD,2024-07-20 20:40:54,15.08855141,0.0001264,53.215,263.3863,80.6876,279.4259,0.00025322,3.746e-05,0.0,0 STARLINK-4259,1 52987U 22076B   24202.86173755  .00003746  00000-0  25322-3 0  9997,2 52987  53.2150 263.3863 0001264  80.6876 279.4259 15.08855141112604,6917.834,95.437,540.574,538.825,0.0
52987.0,STARLINK-4259,PAYLOAD,2024-07-21 04:37:50,15.08832497,0.0001785,53.2146,261.9008,92.3015,267.8182,-2.7064e-05,-7.19e-06,0.0,0 STARLINK-4259,1 52987U 22076B   24203.19295014 -.00000719  00000-0 -27064-4 0  9992,2 52987  53.2146 261.9008 0001785  92.3015 267.8182 15.08832497113120,6917.903,95.438,541.003,538.533,0.0
52987.0,STARLINK-4259,PAYLOAD,2024-07-21 10:59:23,15.08830787,0.0001517,53.2154,260.7122,91.8822,268.2344,-5.0073e-05,-1.085e-05,0.0,0 STARLINK-4259,1 52987U 22076B   24203.45791179 -.00001085  00000-0 -50073-4 0  9997,2 52987  53.2154 260.7122 0001517  91.8822 268.2344 15.08830787112692,6917.909,95.438,540.823,538.724,0.0
52987.0,STARLINK-4259,PAYLOAD,2024-07-22 09:14:47,15.0884235,0.0001472,53.2148,256.5502,93.5114,266.6046,0.00018524,2.662e-05,0.0,0 STARLINK-4259,1 52987U 22076B   24204.38526874  .00002662  00000-0  18524-3 0  9992,2 52987  53.2148 256.5502 0001472  93.5114 266.6046 15.08842350113302,6917.873,95.437,540.757,538.72,0.0
52987.0,STARLINK-4259,PAYLOAD,2024-07-23 09:05:34,15.08847481,0.0001422,53.2136,252.0879,97.5592,262.5562,0.00027329,4.065e-05,0.0,0 STARLINK-4259,1 52987U 22076B   24205.37886691  .00004065  00000-0  27329-3 0  9990,2 52987  53.2136 252.0879 0001422  97.5592 262.5562 15.08847481112987,6917.858,95.437,540.706,538.739,0.0
52987.0,STARLINK-4259,PAYLOAD,2024-07-24 08:56:21,15.08841072,0.0002654,53.2147,247.6456,148.0248,212.0906,3.7548e-05,3.09e-06,0.0,0 STARLINK-4259,1 52987U 22076B   24206.37246685  .00000309  00000-0  37548-4 0  9996,2 52987  53.2147 247.6456 0002654 148.0248 212.0906 15.08841072113600,6917.877,95.437,541.578,537.906,0.0
52987.0,STARLINK-4259,PAYLOAD,2024-07-25 10:22:31,15.08843119,0.0001492,53.2138,242.8663,116.1398,243.9748,0.00013013,1.784e-05,0.0,0 STARLINK-4259,1 52987U 22076B   24207.43230712  .00001784  00000-0  13013-3 0  9996,2 52987  53.2138 242.8663 0001492 116.1398 243.9748 15.08843119113766,6917.871,95.437,540.768,538.704,0.0
